OBJECT_NAME,OBJECT_ID,EPOCH,MEAN_MOTION,ECCENTRICITY,INCLINATION,RA_OF_ASC_NODE,ARG_OF_PERICENTER,MEAN_ANOMALY,EPHEMERIS_TYPE,CLASSIFICATION_TYPE,NORAD_CAT_ID,ELEMENT_SET_NO,REV_AT_EPOCH,BSTAR,MEAN_MOTION_DOT,MEAN_MOTION_DDOT
SCD 1,1993-009B,2026-07-13T22:46:56.894304,14.46128354,.0042056,24.9704,42.3339,61.3892,45.0115,0,U,22490,999,76499,.30089E-4,.295E-5,0
TECHSAT 1B (GO-32),1998-043D,2026-07-13T23:13:04.326816,14.24433220,.0002157,99.0084,188.4033,116.4622,243.6777,0,U,25397,999,45514,.25815E-4,.13E-6,0
SCD 2,1998-060A,2026-07-14T05:21:52.668000,14.45534648,.0016966,24.9947,265.4295,49.4080,344.5255,0,U,25504,999,46424,.286E-4,.284E-5,0
DLR-TUBSAT,1999-029B,2026-07-14T05:30:25.717248,14.52433162,.0012963,98.6710,191.6251,267.9152,92.0558,0,U,25757,999,43717,.14089E-4,.9E-7,0
TERRA,1999-068A,2026-07-14T03:06:11.432736,14.61123253,.0003368,97.9442,243.6054,124.9231,259.1124,0,U,25994,999,41354,.49282E-4,.198E-5,0
MAROC-TUBSAT,2001-056D,2026-07-14T02:27:00.518976,13.70263520,.0020609,99.8097,12.4707,74.7835,40.1434,0,U,27004,999,22987,.14524E-4,-.34E-6,0
AQUA,2002-022A,2026-07-14T05:17:51.058176,14.62196256,.0000915,98.4295,165.0470,111.3891,305.7736,0,U,27424,999,28722,.83227E-4,.37E-5,0
SHIYAN-1 (SY-1),2004-012A,2026-07-14T04:29:38.488128,15.34436267,.0004061,97.8691,275.0221,279.7096,80.3686,0,U,28220,999,21523,.24237E-3,.7997E-4,0
AURA,2004-026A,2026-07-14T04:03:10.271232,14.61366937,.0001299,98.3430,151.8483,92.7691,267.3658,0,U,28376,999,17015,.83179E-4,.363E-5,0
IRS-P5 (CARTOSAT-1),2005-017A,2026-07-14T01:19:37.794720,14.91115487,.0001462,97.5307,216.9009,54.7967,305.3389,0,U,28649,999,14782,.69133E-4,.633E-5,0
SINAH 1,2005-043D,2026-07-14T04:25:58.124064,14.64175096,.0014325,98.2891,329.6704,186.6806,173.4207,0,U,28893,999,10447,.34686E-4,.133E-5,0
RESURS-DK 1,2006-021A,2026-07-14T04:52:05.737152,15.13317177,.0007041,69.9309,269.6153,271.9695,88.0665,0,U,29228,999,10666,.59675E-4,.957E-5,0
ARIRANG-2 (KOMPSAT-2),2006-031A,2026-07-14T04:58:55.413984,14.64674519,.0014365,97.8307,18.3478,354.0931,57.8112,0,U,29268,999,6543,-.81475E-5,-.89E-6,0
LAPAN-TUBSAT,2007-001A,2026-07-14T04:32:37.531392,14.85974854,.0013593,98.1348,195.0233,96.5630,263.7133,0,U,29709,999,5516,-.29518E-4,-.316E-5,0
HAIYANG-1B,2007-010A,2026-07-13T22:10:49.476864,14.31033088,.0014603,98.3514,175.7347,119.3043,240.9602,0,U,31113,999,446,.2599E-4,.27E-6,0
COSMO-SKYMED 1,2007-023A,2026-07-14T04:52:10.363008,14.97216583,.0001338,97.8844,27.2873,103.3925,256.7446,0,U,31598,999,3383,.12599E-3,.1398E-4,0
TERRASAR-X,2007-026A,2026-07-07T11:29:59.023968,15.19153986,.0001878,97.4461,195.8972,86.9540,273.1909,0,U,31698,999,5630,.14624E-4,.24E-5,0
WORLDVIEW-1 (WV-1),2007-041A,2026-07-14T04:55:04.063296,15.24552092,.0001437,97.3904,314.5689,210.7351,149.3802,0,U,32060,999,4699,.1427E-3,.3442E-4,0
YAOGAN-3,2007-055A,2026-07-14T04:13:18.456384,14.90881432,.0001649,97.8148,224.7870,81.3043,278.8362,0,U,32289,999,989,.18096E-3,.1728E-4,0
COSMO-SKYMED 2,2007-059A,2026-07-14T03:57:57.929184,14.82150033,.0001435,97.8892,18.3728,93.7322,266.4055,0,U,32376,999,600,.30475E-4,.19E-5,0
RADARSAT-2,2007-061A,2026-07-14T04:28:34.464864,14.29983592,.000133,98.5779,201.7335,84.4548,275.6786,0,U,32382,999,96981,.76878E-4,.155E-5,0
CARTOSAT-2A,2008-021A,2026-07-14T04:06:35.923104,14.79277141,.0012566,97.7625,242.9570,30.4003,329.7935,0,U,32783,999,98279,.98264E-4,.681E-5,0
HUANJING 1A (HJ-1A),2008-041A,2026-07-14T04:54:01.602144,14.84049374,.0020456,97.6691,180.0005,52.6774,307.6301,0,U,33320,999,96241,.1167E-3,.924E-5,0
HUANJING 1B (HJ-1B),2008-041B,2026-07-14T04:27:21.695328,14.83363585,.0037933,97.6526,183.0720,94.4112,266.1438,0,U,33321,999,96241,.75412E-4,.574E-5,0
GEOEYE 1,2008-042A,2026-07-14T03:16:36.075360,14.64648885,.0004016,98.1328,268.7448,350.3426,9.7699,0,U,33331,999,95409,.44766E-4,.19E-5,0
THEOS,2008-049A,2026-07-14T05:38:43.314720,14.20135636,.000114,98.5565,251.6388,87.8195,272.3113,0,U,33396,999,92180,-.70884E-4,-.193E-5,0
COSMO-SKYMED 3,2008-054A,2026-07-14T04:00:09.665856,15.07107820,.0015702,97.8250,54.1842,169.8370,190.3178,0,U,33412,999,96100,.12184E-3,.1768E-4,0
YAOGAN-4,2008-061A,2026-07-13T19:32:49.559136,14.83249773,.001396,97.9303,128.1290,350.2314,9.8626,0,U,33446,999,94961,.6376E-4,.468E-5,0
GOSAT (IBUKI),2009-002A,2026-07-13T20:46:42.898656,14.67538848,.0001114,98.0913,305.6156,91.5028,268.6304,0,U,33492,999,93537,.6787E-4,.337E-5,0
DEIMOS-1,2009-041A,2026-07-14T04:21:01.695168,14.75261592,.0002787,97.7425,351.2428,94.0621,266.0907,0,U,35681,999,91086,-.2219E-4,-.198E-5,0
DUBAISAT-1,2009-041B,2026-07-13T22:48:08.576064,14.75165599,.0010013,98.0082,327.9197,352.7745,7.3318,0,U,35682,999,90904,.65398E-4,.391E-5,0
