SCD 1                   
1 22490U 93009B   26194.94926961  .00000295  00000+0  30089-4 0  9995
2 22490  24.9704  42.3339 0042056  61.3892  45.0115 14.46128354764994
TECHSAT 1B (GO-32)      
1 25397U 98043D   26194.96741119  .00000013  00000+0  25815-4 0  9998
2 25397  99.0084 188.4033 0002157 116.4622 243.6777 14.24433220455142
SCD 2                   
1 25504U 98060A   26195.22352625  .00000284  00000+0  28600-4 0  9992
2 25504  24.9947 265.4295 0016966  49.4080 344.5255 14.45534648464241
DLR-TUBSAT              
1 25757U 99029B   26195.22946432  .00000009  00000+0  14089-4 0  9994
2 25757  98.6710 191.6251 0012963 267.9152  92.0558 14.52433162437179
TERRA                   
1 25994U 99068A   26195.12929899  .00000198  00000+0  49282-4 0  9999
2 25994  97.9442 243.6054 0003368 124.9231 259.1124 14.61123253413541
MAROC-TUBSAT            
1 27004U 01056D   26195.10208934 -.00000034  00000+0  14524-4 0  9992
2 27004  99.8097  12.4707 0020609  74.7835  40.1434 13.70263520229872
AQUA                    
1 27424U 02022A   26195.22072984  .00000370  00000+0  83227-4 0  9997
2 27424  98.4295 165.0470 0000915 111.3891 305.7736 14.62196256287224
SHIYAN-1 (SY-1)         
1 28220U 04012A   26195.18725102  .00007997  00000+0  24237-3 0  9992
2 28220  97.8691 275.0221 0004061 279.7096  80.3686 15.34436267215231
AURA                    
1 28376U 04026A   26195.16886888  .00000363  00000+0  83179-4 0  9997
2 28376  98.3430 151.8483 0001299  92.7691 267.3658 14.61366937170157
IRS-P5 (CARTOSAT-1)     
1 28649U 05017A   26195.05529855  .00000633  00000+0  69133-4 0  9991
2 28649  97.5307 216.9009 0001462  54.7967 305.3389 14.91115487147824
SINAH 1                 
1 28893U 05043D   26195.18470051  .00000133  00000+0  34686-4 0  9998
2 28893  98.2891 329.6704 0014325 186.6806 173.4207 14.64175096104473
RESURS-DK 1             
1 29228U 06021A   26195.20284418  .00000957  00000+0  59675-4 0  9990
2 29228  69.9309 269.6153 0007041 271.9695  88.0665 15.13317177106662
ARIRANG-2 (KOMPSAT-2)   
1 29268U 06031A   26195.20758581 -.00000089  00000+0 -81475-5 0  9994
2 29268  97.8307  18.3478 0014365 354.0931  57.8112 14.64674519 65437
LAPAN-TUBSAT            
1 29709U 07001A   26195.18932328 -.00000316  00000+0 -29518-4 0  9994
2 29709  98.1348 195.0233 0013593  96.5630 263.7133 14.85974854 55162
HAIYANG-1B              
1 31113U 07010A   26194.92418376  .00000027  00000+0  25990-4 0  9996
2 31113  98.3514 175.7347 0014603 119.3043 240.9602 14.31033088  4468
COSMO-SKYMED 1          
1 31598U 07023A   26195.20289772  .00001398  00000+0  12599-3 0  9997
2 31598  97.8844  27.2873 0001338 103.3925 256.7446 14.97216583 33832
TERRASAR-X              
1 31698U 07026A   26188.47915537  .00000240  00000+0  14624-4 0  9994
2 31698  97.4461 195.8972 0001878  86.9540 273.1909 15.19153986 56300
WORLDVIEW-1 (WV-1)      
1 32060U 07041A   26195.20490814  .00003442  00000+0  14270-3 0  9993
2 32060  97.3904 314.5689 0001437 210.7351 149.3802 15.24552092 46995
YAOGAN-3                
1 32289U 07055A   26195.17590806  .00001728  00000+0  18096-3 0  9994
2 32289  97.8148 224.7870 0001649  81.3043 278.8362 14.90881432  9894
COSMO-SKYMED 2          
1 32376U 07059A   26195.16525381  .00000190  00000+0  30475-4 0  9998
2 32376  97.8892  18.3728 0001435  93.7322 266.4055 14.82150033  6005
RADARSAT-2              
1 32382U 07061A   26195.18651001  .00000155  00000+0  76878-4 0  9997
2 32382  98.5779 201.7335 0001330  84.4548 275.6786 14.29983592969812
CARTOSAT-2A             
1 32783U 08021A   26195.17124911  .00000681  00000+0  98264-4 0  9990
2 32783  97.7625 242.9570 0012566  30.4003 329.7935 14.79277141982796
HUANJING 1A (HJ-1A)     
1 33320U 08041A   26195.20418521  .00000924  00000+0  11670-3 0  9992
2 33320  97.6691 180.0005 0020456  52.6774 307.6301 14.84049374962419
HUANJING 1B (HJ-1B)     
1 33321U 08041B   26195.18566777  .00000574  00000+0  75412-4 0  9993
2 33321  97.6526 183.0720 0037933  94.4112 266.1438 14.83363585962414
GEOEYE 1                
1 33331U 08042A   26195.13652865  .00000190  00000+0  44766-4 0  9996
2 33331  98.1328 268.7448 0004016 350.3426   9.7699 14.64648885954090
THEOS                   
1 33396U 08049A   26195.23522355 -.00000193  00000+0 -70884-4 0  9990
2 33396  98.5565 251.6388 0001140  87.8195 272.3113 14.20135636921801
COSMO-SKYMED 3          
1 33412U 08054A   26195.16677854  .00001768  00000+0  12184-3 0  9997
2 33412  97.8250  54.1842 0015702 169.8370 190.3178 15.07107820961005
YAOGAN-4                
1 33446U 08061A   26194.81446249  .00000468  00000+0  63760-4 0  9998
2 33446  97.9303 128.1290 0013960 350.2314   9.8626 14.83249773949611
GOSAT (IBUKI)           
1 33492U 09002A   26194.86577429  .00000337  00000+0  67870-4 0  9996
2 33492  98.0913 305.6156 0001114  91.5028 268.6304 14.67538848935371
DEIMOS-1                
1 35681U 09041A   26195.18126962 -.00000198  00000+0 -22190-4 0  9992
2 35681  97.7425 351.2428 0002787  94.0621 266.0907 14.75261592910866
DUBAISAT-1              
1 35682U 09041B   26194.95009926  .00000391  00000+0  65398-4 0  9997
2 35682  98.0082 327.9197 0010013 352.7745   7.3318 14.75165599909045
